[
  {
    "name": "STARLINK-33850",
    "noradId": "63679",
    "line1": "1 63679U 25085R   26181.82946463  .00019121  00000+0  70212-3 0  9999",
    "line2": "2 63679  42.9989 111.9184 0002416 282.8091  77.2491 15.27599315 66168"
  },
  {
    "name": "STARLINK-33887",
    "noradId": "63680",
    "line1": "1 63680U 25085S   26181.79862624  .00023079  00000+0  84487-3 0  9999",
    "line2": "2 63680  43.0010 111.6858 0000835 220.8380 139.2410 15.27607692 66234"
  },
  {
    "name": "STARLINK-33886",
    "noradId": "63681",
    "line1": "1 63681U 25085T   26181.79477277  .00018495  00000+0  67970-3 0  9990",
    "line2": "2 63681  43.0060 111.6629 0001751 278.0475  82.0178 15.27591834 66173"
  },
  {
    "name": "STARLINK-33840",
    "noradId": "63682",
    "line1": "1 63682U 25085U   26181.77949991  .00029643  00000+0  10819-2 0  9992",
    "line2": "2 63682  42.9998 112.4056 0000991 234.9089 125.1670 15.27595119 66167"
  },
  {
    "name": "STARLINK-33853",
    "noradId": "63684",
    "line1": "1 63684U 25085W   26181.80763833  .00019999  00000+0  73393-3 0  9997",
    "line2": "2 63684  43.0006 111.7522 0001213 250.2233 109.8488 15.27597414 66178"
  },
  {
    "name": "STARLINK-33847",
    "noradId": "63685",
    "line1": "1 63685U 25085X   26181.11535365  .00016564  00000+0  60990-3 0  9993",
    "line2": "2 63685  42.9999 116.0180 0001545 274.6548  85.4127 15.27590505 66064"
  },
  {
    "name": "STARLINK-33880",
    "noradId": "63686",
    "line1": "1 63686U 25085Y   26181.78206844  .00017534  00000+0  64497-3 0  9998",
    "line2": "2 63686  42.9992 112.4298 0000924 233.4084 126.6682 15.27590529 66279"
  },
  {
    "name": "STARLINK-33894",
    "noradId": "63697",
    "line1": "1 63697U 25087A   26181.64042569  .00025087  00000+0  75147-3 0  9995",
    "line2": "2 63697  53.1590  52.7384 0001360  82.6118 277.5039 15.34385969 66526"
  },
  {
    "name": "STARLINK-33922",
    "noradId": "63698",
    "line1": "1 63698U 25087B   26180.96935948  .00013250  00000+0  45863-3 0  9993",
    "line2": "2 63698  53.1605  57.7835 0001299  93.6637 266.4513 15.30205048 66382"
  },
  {
    "name": "STARLINK-33919",
    "noradId": "63699",
    "line1": "1 63699U 25087C   26181.67843744  .00019843  00000+0  68016-3 0  9994",
    "line2": "2 63699  53.1587  55.0957 0001115  85.6434 274.4694 15.30206444 66493"
  },
  {
    "name": "STARLINK-33908",
    "noradId": "63700",
    "line1": "1 63700U 25087D   26181.63939255  .00028710  00000+0  97733-3 0  9997",
    "line2": "2 63700  53.1595  54.8530 0001281  91.4117 268.7030 15.30213159 66497"
  },
  {
    "name": "STARLINK-33950",
    "noradId": "63701",
    "line1": "1 63701U 25087E   26181.83335647 -.00011903  00000+0 -37232-3 0  9991",
    "line2": "2 63701  53.1587  53.7574 0001233  89.9263   0.4299 15.31706955  5916"
  },
  {
    "name": "STARLINK-33939",
    "noradId": "63702",
    "line1": "1 63702U 25087F   26181.65848972  .00028911  00000+0  93902-3 0  9993",
    "line2": "2 63702  53.1587  54.2643 0001073  80.9605 279.1518 15.31726500 66502"
  },
  {
    "name": "STARLINK-33868",
    "noradId": "63703",
    "line1": "1 63703U 25087G   26181.64361470  .00015946  00000+0  54927-3 0  9994",
    "line2": "2 63703  53.1601  54.8760 0001217  73.1045 287.0089 15.30204108 66491"
  },
  {
    "name": "STARLINK-33937",
    "noradId": "63704",
    "line1": "1 63704U 25087H   26181.68466127  .00028119  00000+0  95814-3 0  9990",
    "line2": "2 63704  53.1589  54.4192 0001097 101.3570 258.7554 15.30192575 66503"
  },
  {
    "name": "STARLINK-33848",
    "noradId": "63705",
    "line1": "1 63705U 25087J   26181.63094964  .00023264  00000+0  79497-3 0  9997",
    "line2": "2 63705  53.1594  54.7997 0001418  85.7430 274.3733 15.30206946 66481"
  },
  {
    "name": "STARLINK-33995",
    "noradId": "63706",
    "line1": "1 63706U 25087K   26181.67316213  .00029048  00000+0  98875-3 0  9993",
    "line2": "2 63706  53.1581  55.0595 0000912  87.7928 272.3177 15.30209557 66490"
  },
  {
    "name": "STARLINK-33982",
    "noradId": "63707",
    "line1": "1 63707U 25087L   26181.63728409  .00022462  00000+0  76807-3 0  9998",
    "line2": "2 63707  53.1601  54.8362 0001333  75.8965 284.2184 15.30206207 66499"
  },
  {
    "name": "STARLINK-33915",
    "noradId": "63708",
    "line1": "1 63708U 25087M   26181.64889322  .00040362  00000+0  13672-2 0  9991",
    "line2": "2 63708  53.1603  54.9103 0000976  76.1500 283.9609 15.30205635 66499"
  },
  {
    "name": "STARLINK-33862",
    "noradId": "63709",
    "line1": "1 63709U 25087N   26180.92409797  .00022764  00000+0  77811-3 0  9998",
    "line2": "2 63709  53.1605  58.2080 0001350  81.3305 278.7848 15.30210134 66386"
  },
  {
    "name": "STARLINK-33920",
    "noradId": "63710",
    "line1": "1 63710U 25087P   26181.67716090  .00021697  00000+0  70852-3 0  9992",
    "line2": "2 63710  53.1582  54.3824 0000787  67.8846 292.2239 15.31717736 66507"
  },
  {
    "name": "STARLINK-33580",
    "noradId": "63711",
    "line1": "1 63711U 25087Q   26181.61657904  .00038276  00000+0  12384-2 0  9991",
    "line2": "2 63711  53.1594  54.7103 0001930 126.8457 233.2722 15.31711235 66498"
  },
  {
    "name": "STARLINK-33783",
    "noradId": "63712",
    "line1": "1 63712U 25087R   26180.95006970  .00021777  00000+0  71120-3 0  9991",
    "line2": "2 63712  53.1581  57.6610 0000890  84.8643 275.2460 15.31712636 66394"
  },
  {
    "name": "STARLINK-33773",
    "noradId": "63713",
    "line1": "1 63713U 25087S   26181.63049001  .00033276  00000+0  10782-2 0  9993",
    "line2": "2 63713  53.1594  54.0864 0001008 100.7490 259.3625 15.31733507 66500"
  },
  {
    "name": "STARLINK-33745",
    "noradId": "63714",
    "line1": "1 63714U 25087T   26181.83335647 -.00015909  00000+0 -52613-3 0  9995",
    "line2": "2 63714  53.1589  53.8003 0001267  95.9964 328.8159 15.30201032  5852"
  },
  {
    "name": "STARLINK-33728",
    "noradId": "63715",
    "line1": "1 63715U 25087U   26181.63304760  .00004900  00000+0  17741-3 0  9996",
    "line2": "2 63715  53.1608  54.8089 0001384  86.3782 273.7377 15.30205137 66499"
  },
  {
    "name": "STARLINK-33749",
    "noradId": "63716",
    "line1": "1 63716U 25087V   26181.67249315  .00030622  00000+0  99378-3 0  9991",
    "line2": "2 63716  53.1582  54.3470 0001219  83.6759 276.4381 15.31722988 66507"
  },
  {
    "name": "STARLINK-33725",
    "noradId": "63717",
    "line1": "1 63717U 25087W   26181.63622683  .00014066  00000+0  48628-3 0  9997",
    "line2": "2 63717  53.1601  54.8303 0001685  69.2548 290.8633 15.30189157 66495"
  },
  {
    "name": "STARLINK-33641",
    "noradId": "63718",
    "line1": "1 63718U 25087X   26180.93606740  .00023613  00000+0  77002-3 0  9992",
    "line2": "2 63718  53.1589  57.5705 0000865  51.3750 308.7329 15.31710197 66398"
  },
  {
    "name": "STARLINK-33727",
    "noradId": "63719",
    "line1": "1 63719U 25087Y   26181.63832243  .00032451  00000+0  96762-3 0  9994",
    "line2": "2 63719  53.1593  52.7207 0001191  75.6210 284.4925 15.34393543 66523"
  }
]