OBJECT_NAME,OBJECT_ID,EPOCH,MEAN_MOTION,ECCENTRICITY,INCLINATION,RA_OF_ASC_NODE,ARG_OF_PERICENTER,MEAN_ANOMALY,EPHEMERIS_TYPE,CLASSIFICATION_TYPE,NORAD_CAT_ID,ELEMENT_SET_NO,REV_AT_EPOCH,BSTAR,MEAN_MOTION_DOT,MEAN_MOTION_DDOT
STARLINK-33850,2025-085R,2026-06-30T19:54:25.744032,15.27599315,.0002416,42.9989,111.9184,282.8091,77.2491,0,U,63679,999,6616,.70212E-3,.19121E-3,0
STARLINK-33887,2025-085S,2026-06-30T19:10:01.307136,15.27607692,.0000835,43.0010,111.6858,220.8380,139.2410,0,U,63680,999,6623,.84487E-3,.23079E-3,0
STARLINK-33886,2025-085T,2026-06-30T19:04:28.367328,15.27591834,.0001751,43.0060,111.6629,278.0475,82.0178,0,U,63681,999,6617,.6797E-3,.18495E-3,0
STARLINK-33840,2025-085U,2026-06-30T18:42:28.792224,15.27595119,.0000991,42.9998,112.4056,234.9089,125.1670,0,U,63682,999,6616,.10819E-2,.29643E-3,0
STARLINK-33853,2025-085W,2026-06-30T19:22:59.951712,15.27597414,.0001213,43.0006,111.7522,250.2233,109.8488,0,U,63684,999,6617,.73393E-3,.19999E-3,0
STARLINK-33847,2025-085X,2026-06-30T02:46:06.555360,15.27590505,.00015453,42.9999,116.0180,274.6548,85.4127,0,U,63685,999,6606,.6099021E-3,.16564E-3,0
STARLINK-33880,2025-085Y,2026-06-30T18:46:10.713216,15.27590529,.0000924,42.9992,112.4298,233.4084,126.6682,0,U,63686,999,6627,.64497E-3,.17534E-3,0
STARLINK-33894,2025-087A,2026-06-30T15:22:12.779616,15.34385969,.000136,53.1590,52.7384,82.6118,277.5039,0,U,63697,999,6652,.75147E-3,.25087E-3,0
STARLINK-33922,2025-087B,2026-06-29T23:15:52.659072,15.30205048,.00012995,53.1605,57.7835,93.6637,266.4513,0,U,63698,999,6638,.45862662E-3,.1325E-3,0
STARLINK-33919,2025-087C,2026-06-30T16:16:56.994816,15.30206444,.0001115,53.1587,55.0957,85.6434,274.4694,0,U,63699,999,6649,.68016E-3,.19843E-3,0
STARLINK-33908,2025-087D,2026-06-30T15:20:43.516320,15.30213159,.0001281,53.1595,54.8530,91.4117,268.7030,0,U,63700,999,6649,.97733E-3,.2871E-3,0
STARLINK-33950,2025-087E,2026-06-30T20:00:01.999008,15.31706955,.0001233,53.1587,53.7574,89.9263,0.4299,0,U,63701,999,591,-.37232E-3,-.11903E-3,0
STARLINK-33939,2025-087F,2026-06-30T15:48:13.511808,15.31726500,.0001073,53.1587,54.2643,80.9605,279.1518,0,U,63702,999,6650,.93902E-3,.28911E-3,0
STARLINK-33868,2025-087G,2026-06-30T15:26:48.310080,15.30204108,.0001217,53.1601,54.8760,73.1045,287.0089,0,U,63703,999,6649,.54927E-3,.15946E-3,0
STARLINK-33937,2025-087H,2026-06-30T16:25:54.733728,15.30192575,.0001097,53.1589,54.4192,101.3570,258.7554,0,U,63704,999,6650,.95814E-3,.28119E-3,0
STARLINK-33848,2025-087J,2026-06-30T15:08:34.048896,15.30206946,.0001418,53.1594,54.7997,85.7430,274.3733,0,U,63705,999,6648,.79497E-3,.23264E-3,0
STARLINK-33995,2025-087K,2026-06-30T16:09:21.208032,15.30209557,.0000912,53.1581,55.0595,87.7928,272.3177,0,U,63706,999,6649,.98875E-3,.29048E-3,0
STARLINK-33982,2025-087L,2026-06-30T15:17:41.345376,15.30206207,.0001333,53.1601,54.8362,75.8965,284.2184,0,U,63707,999,6649,.76807E-3,.22462E-3,0
STARLINK-33915,2025-087M,2026-06-30T15:34:24.374208,15.30205635,.0000976,53.1603,54.9103,76.1500,283.9609,0,U,63708,999,6649,.13672E-2,.40362E-3,0
STARLINK-33862,2025-087N,2026-06-29T22:10:42.064608,15.30210134,.00013506,53.1605,58.2080,81.3305,278.7848,0,U,63709,999,6638,.77811164E-3,.22764E-3,0
STARLINK-33920,2025-087P,2026-06-30T16:15:06.701760,15.31717736,.0000787,53.1582,54.3824,67.8846,292.2239,0,U,63710,999,6650,.70852E-3,.21697E-3,0
STARLINK-33580,2025-087Q,2026-06-30T14:47:52.429056,15.31711235,.000193,53.1594,54.7103,126.8457,233.2722,0,U,63711,999,6649,.12384E-2,.38276E-3,0
STARLINK-33783,2025-087R,2026-06-29T22:48:06.022080,15.31712636,.00008908,53.1581,57.6610,84.8643,275.2460,0,U,63712,999,6639,.71119592E-3,.21777E-3,0
STARLINK-33773,2025-087S,2026-06-30T15:07:54.336864,15.31733507,.0001008,53.1594,54.0864,100.7490,259.3625,0,U,63713,999,6650,.10782E-2,.33276E-3,0
STARLINK-33745,2025-087T,2026-06-30T20:00:01.999008,15.30201032,.0001267,53.1589,53.8003,95.9964,328.8159,0,U,63714,999,585,-.52613E-3,-.15909E-3,0
STARLINK-33728,2025-087U,2026-06-30T15:11:35.312640,15.30205137,.0001384,53.1608,54.8089,86.3782,273.7377,0,U,63715,999,6649,.17741E-3,.49E-4,0
STARLINK-33749,2025-087V,2026-06-30T16:08:23.408160,15.31722988,.0001219,53.1582,54.3470,83.6759,276.4381,0,U,63716,999,6650,.99378E-3,.30622E-3,0
STARLINK-33725,2025-087W,2026-06-30T15:16:09.998112,15.30189157,.0001685,53.1601,54.8303,69.2548,290.8633,0,U,63717,999,6649,.48628E-3,.14066E-3,0
STARLINK-33641,2025-087X,2026-06-29T22:27:56.223360,15.31710197,.00008652,53.1589,57.5705,51.3750,308.7329,0,U,63718,999,6639,.77002339E-3,.23613E-3,0
STARLINK-33727,2025-087Y,2026-06-30T15:19:11.057952,15.34393543,.0001191,53.1593,52.7207,75.6210,284.4925,0,U,63719,999,6652,.96762E-3,.32451E-3,0
